{
  "type": "FeatureCollection",
  "features": [
    {
      "type": "Feature",
      "properties": {
        "norad_id": 60182,
        "name": "ALOS-4 (DAICHI-4)",
        "group": "resource",
        "lat": 32.53040858008048,
        "lon": 89.72010572950313,
        "alt_km": 628.6827908596697,
        "timestamp": "2025-12-26T03:50:11.745692+00:00",
        "meta_object_name": "ALOS-4 (DAICHI-4)",
        "meta_object_id": "2024-123A",
        "meta_epoch": "2025-12-25T19:34:21.067968",
        "meta_mean_motion": 14.79473196,
        "meta_eccentricity": 0.0001399,
        "meta_inclination": 97.9218,
        "meta_ra_of_asc_node": 94.476,
        "meta_arg_of_pericenter": 100.6814,
        "meta_mean_anomaly": 259.4555,
        "meta_ephemeris_type": 0,
        "meta_classification_type": "U",
        "meta_norad_cat_id": 60182,
        "meta_element_set_no": 999,
        "meta_rev_at_epoch": 8024,
        "meta_bstar": 0.00031723,
        "meta_mean_motion_dot": 2.318e-05,
        "meta_mean_motion_ddot": 0,
        "tle_line1": "1 60182U 24123A   25359.81552162  .00002318  00000+0  31723-3 0  9995",
        "tle_line2": "2 60182  97.9218  94.4760 0001399 100.6814 259.4555 14.79473196 80247"
      },
      "geometry": {
        "type": "Point",
        "coordinates": [
          89.72010572950313,
          32.53040858008048
        ]
      }
    },
    {
      "type": "Feature",
      "properties": {
        "norad_id": 60452,
        "name": "LEGION 3",
        "group": "resource",
        "lat": 26.780281693207456,
        "lon": 27.84704229662029,
        "alt_km": 521.1947042202828,
        "timestamp": "2025-12-26T03:50:11.745702+00:00",
        "meta_object_name": "LEGION 3",
        "meta_object_id": "2024-146A",
        "meta_epoch": "2025-12-25T19:18:40.188384",
        "meta_mean_motion": 15.15892089,
        "meta_eccentricity": 0.001575,
        "meta_inclination": 45.0001,
        "meta_ra_of_asc_node": 240.0876,
        "meta_arg_of_pericenter": 268.1966,
        "meta_mean_anomaly": 91.7109,
        "meta_ephemeris_type": 0,
        "meta_classification_type": "U",
        "meta_norad_cat_id": 60452,
        "meta_element_set_no": 999,
        "meta_rev_at_epoch": 7571,
        "meta_bstar": 0.00029593,
        "meta_mean_motion_dot": 5.517e-05,
        "meta_mean_motion_ddot": 0,
        "tle_line1": "1 60452U 24146A   25359.80463181  .00005517  00000+0  29593-3 0  9997",
        "tle_line2": "2 60452  45.0001 240.0876 0015750 268.1966  91.7109 15.15892089 75717"
      },
      "geometry": {
        "type": "Point",
        "coordinates": [
          27.84704229662029,
          26.780281693207456
        ]
      }
    },
    {
      "type": "Feature",
      "properties": {
        "norad_id": 60453,
        "name": "LEGION 4",
        "group": "resource",
        "lat": 26.809160161432185,
        "lon": 119.64183973885777,
        "alt_km": 516.2729491710907,
        "timestamp": "2025-12-26T03:50:11.745713+00:00",
        "meta_object_name": "LEGION 4",
        "meta_object_id": "2024-146B",
        "meta_epoch": "2025-12-25T19:18:48.805056",
        "meta_mean_motion": 15.15965477,
        "meta_eccentricity": 0.0008016,
        "meta_inclination": 45.0397,
        "meta_ra_of_asc_node": 331.8764,
        "meta_arg_of_pericenter": 24.1728,
        "meta_mean_anomaly": 335.9526,
        "meta_ephemeris_type": 0,
        "meta_classification_type": "U",
        "meta_norad_cat_id": 60453,
        "meta_element_set_no": 999,
        "meta_rev_at_epoch": 7456,
        "meta_bstar": 0.00035149,
        "meta_mean_motion_dot": 6.604e-05,
        "meta_mean_motion_ddot": 0,
        "tle_line1": "1 60453U 24146B   25359.80473154  .00006604  00000+0  35149-3 0  9991",
        "tle_line2": "2 60453  45.0397 331.8764 0008016  24.1728 335.9526 15.15965477 74564"
      },
      "geometry": {
        "type": "Point",
        "coordinates": [
          119.64183973885777,
          26.809160161432185
        ]
      }
    },
    {
      "type": "Feature",
      "properties": {
        "norad_id": 60989,
        "name": "SENTINEL-2C",
        "group": "resource",
        "lat": -29.411378662009245,
        "lon": 77.32258785811509,
        "alt_km": 795.526981447244,
        "timestamp": "2025-12-26T03:50:11.745724+00:00",
        "meta_object_name": "SENTINEL-2C",
        "meta_object_id": "2024-157A",
        "meta_epoch": "2025-12-25T19:35:01.944672",
        "meta_mean_motion": 14.30817849,
        "meta_eccentricity": 0.0001386,
        "meta_inclination": 98.5666,
        "meta_ra_of_asc_node": 72.1092,
        "meta_arg_of_pericenter": 102.9981,
        "meta_mean_anomaly": 257.1356,
        "meta_ephemeris_type": 0,
        "meta_classification_type": "U",
        "meta_norad_cat_id": 60989,
        "meta_element_set_no": 999,
        "meta_rev_at_epoch": 6819,
        "meta_bstar": 0.00010096,
        "meta_mean_motion_dot": 2.21e-06,
        "meta_mean_motion_ddot": 0,
        "tle_line1": "1 60989U 24157A   25359.81599473  .00000221  00000+0  10096-3 0  9994",
        "tle_line2": "2 60989  98.5666  72.1092 0001386 102.9981 257.1356 14.30817849 68191"
      },
      "geometry": {
        "type": "Point",
        "coordinates": [
          77.32258785811509,
          -29.411378662009245
        ]
      }
    },
    {
      "type": "Feature",
      "properties": {
        "norad_id": 61735,
        "name": "IONOSFERA-M 1",
        "group": "resource",
        "lat": -25.740814498765783,
        "lon": 45.65070329620526,
        "alt_km": 821.9759150562668,
        "timestamp": "2025-12-26T03:50:11.745737+00:00",
        "meta_object_name": "IONOSFERA-M 1",
        "meta_object_id": "2024-199A",
        "meta_epoch": "2025-12-25T20:07:12.192384",
        "meta_mean_motion": 14.22716879,
        "meta_eccentricity": 3.09e-05,
        "meta_inclination": 98.7403,
        "meta_ra_of_asc_node": 229.5855,
        "meta_arg_of_pericenter": 4.999,
        "meta_mean_anomaly": 355.1191,
        "meta_ephemeris_type": 0,
        "meta_classification_type": "U",
        "meta_norad_cat_id": 61735,
        "meta_element_set_no": 999,
        "meta_rev_at_epoch": 10305,
        "meta_bstar": 4.6062e-05,
        "meta_mean_motion_dot": 5.9e-07,
        "meta_mean_motion_ddot": 0,
        "tle_line1": "1 61735U 24199A   25359.83833556  .00000059  00000+0  46062-4 0  9997",
        "tle_line2": "2 61735  98.7403 229.5855 0000309   4.9990 355.1191 14.22716879103055"
      },
      "geometry": {
        "type": "Point",
        "coordinates": [
          45.65070329620526,
          -25.740814498765783
        ]
      }
    },
    {
      "type": "Feature",
      "properties": {
        "norad_id": 61736,
        "name": "IONOSFERA-M 2",
        "group": "resource",
        "lat": 28.245042565722706,
        "lon": -134.92331721620445,
        "alt_km": 814.2776124293305,
        "timestamp": "2025-12-26T03:50:11.745747+00:00",
        "meta_object_name": "IONOSFERA-M 2",
        "meta_object_id": "2024-199B",
        "meta_epoch": "2025-12-25T20:57:04.019616",
        "meta_mean_motion": 14.22719058,
        "meta_eccentricity": 0.0001868,
        "meta_inclination": 98.7394,
        "meta_ra_of_asc_node": 229.5322,
        "meta_arg_of_pericenter": 93.6703,
        "meta_mean_anomaly": 266.4689,
        "meta_ephemeris_type": 0,
        "meta_classification_type": "U",
        "meta_norad_cat_id": 61736,
        "meta_element_set_no": 999,
        "meta_rev_at_epoch": 10618,
        "meta_bstar": 4.8543e-05,
        "meta_mean_motion_dot": 6.5e-07,
        "meta_mean_motion_ddot": 0,
        "tle_line1": "1 61736U 24199B   25359.87296319  .00000065  00000+0  48543-4 0  9995",
        "tle_line2": "2 61736  98.7394 229.5322 0001868  93.6703 266.4689 14.22719058106187"
      },
      "geometry": {
        "type": "Point",
        "coordinates": [
          -134.92331721620445,
          28.245042565722706
        ]
      }
    },
    {
      "type": "Feature",
      "properties": {
        "norad_id": 63772,
        "name": "BIOMASS",
        "group": "resource",
        "lat": -42.16865701049188,
        "lon": -2.4092584493674765,
        "alt_km": 676.1179907227233,
        "timestamp": "2025-12-26T03:50:11.745757+00:00",
        "meta_object_name": "BIOMASS",
        "meta_object_id": "2025-090A",
        "meta_epoch": "2025-12-25T12:05:53.117664",
        "meta_mean_motion": 14.67538757,
        "meta_eccentricity": 0.0001045,
        "meta_inclination": 98.0694,
        "meta_ra_of_asc_node": 184.3277,
        "meta_arg_of_pericenter": 84.0094,
        "meta_mean_anomaly": 276.1229,
        "meta_ephemeris_type": 0,
        "meta_classification_type": "U",
        "meta_norad_cat_id": 63772,
        "meta_element_set_no": 999,
        "meta_rev_at_epoch": 3521,
        "meta_bstar": 0.00023361,
        "meta_mean_motion_dot": 1.277e-05,
        "meta_mean_motion_ddot": 0,
        "tle_line1": "1 63772U 25090A   25359.50408701  .00001277  00000+0  23361-3 0  9994",
        "tle_line2": "2 63772  98.0694 184.3277 0001045  84.0094 276.1229 14.67538757 35213"
      },
      "geometry": {
        "type": "Point",
        "coordinates": [
          -2.4092584493674765,
          -42.16865701049188
        ]
      }
    }
  ]
}